FENGYUN 3C              
1 39260U 13052A   22315.81750006  .00000130  00000+0  86836-4 0  9999
2 39260  98.4444 336.4022 0010575 204.9058 155.1610 14.15958492472775
METEOR-M 2              
1 40069U 14037A   22315.86782664  .00000037  00000+0  36256-4 0  9999
2 40069  98.4288 326.9260 0004586 252.4836 107.5834 14.20725906432790
HIMAWARI-8              
1 40267U 14060A   22315.47474750 -.00000266  00000+0  00000+0 0  9994
2 40267   0.0551 108.6115 0001377 152.1253 101.4568  1.00272460 29582
FENGYUN 2G              
1 40367U 14090A   22315.46018575 -.00000292  00000+0  00000+0 0  9995
2 40367   2.3005  87.9280 0001907 209.7439  17.9216  1.00279192 28824
METEOSAT-11 (MSG-4)     
1 40732U 15034A   22315.35257625  .00000006  00000+0  00000+0 0  9991
2 40732   0.5004 344.7048 0001131 140.3821  52.6178  1.00266230 26841
ELEKTRO-L 2             
1 41105U 15074A   22315.58099634 -.00000106  00000+0  00000+0 0  9991
2 41105   3.3537  86.3656 0002718 130.9918  28.0719  1.00270850 25341
HIMAWARI-9              
1 41836U 16064A   22314.62079425 -.00000267  00000+0  00000+0 0  9990
2 41836   0.0337 153.6097 0001108 100.6677 159.7109  1.00269996 22003
GOES 16                 
1 41866U 16071A   22315.30070574 -.00000239  00000+0  00000+0 0  9992
2 41866   0.0394 272.9566 0001042 359.7681 170.7843  1.00271186 21937
FENGYUN 4A              
1 41882U 16077A   22314.38512852 -.00000320  00000+0  00000+0 0  9994
2 41882   0.1172 289.4804 0004647 117.1374 246.0310  1.00264031 21798
CYGFM05                 
1 41884U 16078A   22315.49325677  .00004154  00000+0  20474-3 0  9996
2 41884  34.9575   5.5305 0014712 326.4321  33.5458 15.17288010327120
CYGFM04                 
1 41885U 16078B   22315.49288925  .00004745  00000+0  23012-3 0  9998
2 41885  34.9505 353.9286 0012936 344.4445  15.5868 15.17838194327179
CYGFM02                 
1 41886U 16078C   22315.41421235  .00004134  00000+0  20042-3 0  9996
2 41886  34.9596 356.6764 0013713 337.3235  22.6871 15.17876420327248
CYGFM01                 
1 41887U 16078D   22315.44833815  .00004066  00000+0  20159-3 0  9994
2 41887  34.9541   8.4410 0015201 325.4433  34.5290 15.17086820327065
CYGFM08                 
1 41888U 16078E   22315.38672660  .00004300  00000+0  21015-3 0  9990
2 41888  34.9514   0.7731 0014188 337.5060  22.5029 15.17577434327197
CYGFM06                 
1 41889U 16078F   22315.45880134  .00004165  00000+0  20191-3 0  9999
2 41889  34.9591 355.0508 0012722 337.1902  22.8244 15.17893631327196
CYGFM07                 
1 41890U 16078G   22315.38399003  .00003980  00000+0  19341-3 0  9992
2 41890  34.9530 354.3816 0012454 341.6380  18.3882 15.17821417327165
CYGFM03                 
1 41891U 16078H   22315.38260201  .00004035  00000+0  19608-3 0  9998
2 41891  34.9563 354.8983 0011994 339.2983  20.7242 15.17824806327153
FENGYUN 3D              
1 43010U 17072A   22315.84104454  .00000131  00000+0  84151-4 0  9995
2 43010  98.8317 259.8031 0001055 164.5548 195.5669 14.19109993258673
NOAA 20                 
1 43013U 17073A   22315.81781591  .00000090  00000+0  63575-4 0  9990
2 43013  98.7296 252.1322 0001235  58.0217 302.1079 14.19558423258138
GOES 17                 
1 43226U 18022A   22315.54644924  .00000107  00000+0  00000+0 0  9997
2 43226   0.0132 270.8133 0000632 331.8107 227.4507  1.00272059 17251
FENGYUN 2H              
1 43491U 18050A   22315.45617618 -.00000117  00000+0  00000+0 0  9994
2 43491   1.5175  94.3562 0003407  77.8663 121.6466  1.00270570 16265
METOP-C                 
1 43689U 18087A   22315.76292729  .00000144  00000+0  85734-4 0  9990
2 43689  98.7161  13.4450 0002719 350.1518   9.9605 14.21486291208235
GEO-KOMPSAT-2A          
1 43823U 18100A   22315.71646549 -.00000334  00000+0  00000+0 0  9994
2 43823   0.0582  93.3586 0000676  67.3419 276.3545  1.00272949 14494
METEOR-M2 2             
1 44387U 19038A   22315.80658155  .00000058  00000+0  44828-4 0  9990
2 44387  98.7432 275.5368 0001197 155.8487 204.2748 14.23729877174372
FENGYUN 3E              
1 49008U 21062A   22315.80599680  .00000043  00000+0  41178-4 0  9991
2 49008  98.7172 315.4812 0000842 308.9666  51.1431 14.19745577 70229
GOES 18                 
1 51850U 22021A   22312.54367326  .00000102  00000+0  00000+0 0  9993
2 51850   0.0048  46.0293 0002349 187.2312 233.2518  1.00271956  2589
JPSS-2                  
1 54234U 22150A   22315.58024839 -.00006182  00000+0 -26503-2 0  9996
2 54234  98.6976 251.9544 0023269 235.9106 123.9725 14.24356651   166
YAOGAN-36 02A           
1 54042U 22133A   22315.84398502 -.00012702  00000+0 -51643-3 0  9993
2 54042  34.9987 110.0850 0006491 171.4555 336.7783 15.23637129  4280
YAOGAN-36 02B           
1 54043U 22133B   22315.84312272  .00011707  00000+0  47539-3 0  9995
2 54043  34.9976 110.0791 0005727 192.8702 315.2016 15.23780062  4281
CZ-2D R/B               
1 54044U 22133C   22315.79184674  .00029665  00000+0  11105-2 0  9994
2 54044  34.9952 110.0427 0006343 180.1848 179.8866 15.26336844  4283
YAOGAN-36 02C           
1 54045U 22133D   22315.84046356  .00015367  00000+0  62435-3 0  9992
2 54045  34.9966 110.0577 0007276 187.1455 320.2019 15.23710259  4287
CZ-2D DEB               
1 54046U 22133E   22315.73332016  .00032416  00000+0  12299-2 0  9998
2 54046  34.9979 110.5172 0005650 166.0899 193.9807 15.25881456  4279
2022-134A               
1 54048U 22134A   22312.80000000 -.00000104  00000+0  00000+0 0  9995
2 54048  19.1010 296.9110 7600857 186.1020 195.6740  1.12706066   308
2022-134B               
1 54049U 22134B   22314.58508008  .00000155  00000+0  10346-2 0  9996
2 54049  26.6132 295.8736 8052418 188.4094 135.4157  1.34300982   350
COSMOS 2560             
1 54050U 22135A   22315.84798743  .00263032  26578-4  90556-3 0  9996
2 54050  96.3426  41.8074 0007382 161.9109 337.7901 15.89537815  4261
STARLINK-5195           
1 54051U 22136A   22315.91667824 -.01196464  00000+0 -16767-1 0  9995
2 54051  53.2172  37.8103 0001907  29.7587  73.8833 15.59045317  4011
STARLINK-5189           
1 54052U 22136B   22315.91667824 -.00060833  00000+0 -42974-3 0  9996
2 54052  53.2172  37.0858 0002624  30.3584  70.4550 15.73324907  4024
STARLINK-5176           
1 54053U 22136C   22315.58334491 -.01235638  00000+0 -16779-1 0  9991
2 54053  53.2175  39.4253 0001353  42.9570 349.4927 15.59965772  1305
STARLINK-5163           
1 54054U 22136D   22315.66668981 -.01183387  00000+0 -16098-1 0  9992
2 54054  53.2175  39.0131 0001560  44.8367  99.1661 15.59791533  3973
STARLINK-5158           
1 54055U 22136E   22315.58334491 -.01195667  00000+0 -16171-1 0  9996
2 54055  53.2175  39.4213 0001465  38.8735 355.4618 15.59972534  1302
STARLINK-5226           
1 54056U 22136F   22315.91667824 -.01201653  00000+0 -16755-1 0  9994
2 54056  53.2172  37.7978 0001619  35.7905  73.6630 15.59192363  4013
STARLINK-5216           
1 54057U 22136G   22315.66668981  .00088516  00000+0  91636-3 0  9993
2 54057  53.2164  38.9909 0002498  51.2211 107.0956 15.63997081  3973
STARLINK-5167           
1 54058U 22136H   22315.91667824 -.01217536  00000+0 -16916-1 0  9992
2 54058  53.2172  37.7893 0001877  32.2343  81.3065 15.59321634  4018
STARLINK-5173           
1 54059U 22136J   22315.58334491 -.01177598  00000+0 -15817-1 0  9999
2 54059  53.2174  39.4108 0001158  59.0807 340.4434 15.60110853  1302
STARLINK-5169           
1 54060U 22136K   22315.66668981 -.00000143  00000+0  34059-5 0  9996
2 54060  53.2141  37.9576 0002328  21.8595 278.1379 15.73260411  3993
STARLINK-5209           
1 54061U 22136L   22315.91667824  .00124523  00000+0  49646-3 0  9994
2 54061  53.2159  36.2078 0007253 159.5290  10.7755 15.85736128  4035
STARLINK-5170           
1 54062U 22136M   22315.58334491 -.01191804  00000+0 -15977-1 0  9996
2 54062  53.2175  39.4038 0001088  76.3815 326.2835 15.60195496  1305
STARLINK-5225           
1 54063U 22136N   22315.58334491 -.01196501  00000+0 -16019-1 0  9994
2 54063  53.2175  39.4016 0001434  42.8352   1.1337 15.60237635  1309
STARLINK-5172           
1 54064U 22136P   22315.91667824 -.00056537  00000+0 -39900-3 0  9990
2 54064  53.2153  37.4606 0003498   8.2722 267.1025 15.73312529  4028
STARLINK-5187           
1 54065U 22136Q   22315.58334491 -.01197709  00000+0 -15988-1 0  9991
2 54065  53.2175  39.3966 0001674  32.7257  13.8191 15.60314576  1300
STARLINK-5151           
1 54066U 22136R   22315.58334491 -.01211609  00000+0 -16213-1 0  9990
2 54066  53.2175  39.3987 0001494  34.7625  10.4904 15.60286605  1301
STARLINK-5174           
1 54067U 22136S   22315.66668981 -.01180976  00000+0 -15833-1 0  9993
2 54067  53.2176  38.9869 0001522  47.1288 110.3663 15.60163813  3974
STARLINK-5222           
1 54068U 22136T   22315.58334491 -.01197063  00000+0 -15959-1 0  9995
2 54068  53.2175  39.3935 0001070 103.0831 304.7272 15.60351414  1303
STARLINK-5223           
1 54069U 22136U   22315.58334491 -.01197907  00000+0 -15852-1 0  9995
2 54069  53.2175  39.3812 0001538  41.6938  12.4889 15.60541365  1305
STARLINK-5181           
1 54070U 22136V   22315.66668981 -.01181042  00000+0 -15811-1 0  9998
2 54070  53.2176  38.9838 0001389  57.4143 101.3849 15.60202602  3975
STARLINK-5168           
1 54071U 22136W   22315.58334491 -.01110160  00000+0 -14630-1 0  9997
2 54071  53.2175  39.3839 0001508  41.2095  11.7599 15.60439926  1303
STARLINK-5144           
1 54072U 22136X   22315.58334491 -.01203797  00000+0 -15983-1 0  9999
2 54072  53.2176  39.3861 0001389  42.9635   8.6968 15.60470944  1305
STARLINK-5146           
1 54073U 22136Y   22315.66668981 -.00007932  00000+0 -51960-4 0  9993
2 54073  53.2155  38.7426 0003180  14.2332 266.5913 15.73268079  3989
STARLINK-5192           
1 54074U 22136Z   22315.66668981 -.01181901  00000+0 -15729-1 0  9994
2 54074  53.2175  38.9737 0001578  44.9305 119.0235 15.60356358  3970
